IRIDIUM 138             
1 43071U 17083B   26200.82860044  .00000137  00000+0  42017-4 0  9994
2 43071  86.4001 308.0717 0002037  94.2087 265.9342 14.34217283448815
IRIDIUM 116             
1 43072U 17083C   26200.79688924  .00000088  00000+0  24277-4 0  9999
2 43072  86.3987 308.3704 0002490  97.8412 262.3067 14.34216841448848
IRIDIUM 130             
1 43073U 17083D   26200.76517610  .00000132  00000+0  39922-4 0  9993
2 43073  86.3994 308.6621 0002357 100.2728 259.8734 14.34218947448783
IRIDIUM 151             
1 43074U 17083E   26200.80957424  .00000144  00000+0  44188-4 0  9993
2 43074  86.3989 308.4235 0002263  95.0554 265.0900 14.34217879448812
IRIDIUM 134             
1 43075U 17083F   26200.77786079  .00000043  00000+0  83448-5 0  9997
2 43075  86.3989 308.4453 0002258  96.6712 263.4741 14.34217917448775
IRIDIUM 137             
1 43076U 17083G   26200.79054699 -.00000005  00000+0 -88647-5 0  9992
2 43076  86.3988 308.5336 0002552  91.3557 268.7931 14.34217602448840
IRIDIUM 141             
1 43077U 17083H   26200.78420384  .00000135  00000+0  41257-4 0  9997
2 43077  86.3987 308.3650 0002150  94.3729 265.7712 14.34217346448844
IRIDIUM 153             
1 43078U 17083J   26200.73638198 -.00000008  00000+0 -98763-5 0  9993
2 43078  86.3955 276.8631 0002030  95.5453 264.5974 14.34217438449943
IRIDIUM 131             
1 43079U 17083K   26200.77151846 -.00000033  00000+0 -18844-4 0  9997
2 43079  86.3988 308.5584 0002116  94.1511 265.9926 14.34217393448777
IRIDIUM 144             
1 43249U 18030A   26200.74272485  .00000038  00000+0  66417-5 0  9992
2 43249  86.3954 276.7890 0002383  96.4076 263.7392 14.34217200434801
IRIDIUM 149             
1 43250U 18030B   26200.74906748 -.00000007  00000+0 -94928-5 0  9996
2 43250  86.3951 276.7527 0002132  93.5222 266.6217 14.34217468434826
IRIDIUM 157             
1 43251U 18030C   26200.76809513  .00000096  00000+0  27094-4 0  9996
2 43251  86.3954 276.7987 0002304  94.6841 265.4618 14.34218787434805
IRIDIUM 140             
1 43252U 18030D   26200.71735536  .00000127  00000+0  38280-4 0  9999
2 43252  86.3955 276.8326 0002262  95.8228 264.3225 14.34218700434852
IRIDIUM 145             
1 43253U 18030E   26200.70467014  .00000034  00000+0  49783-5 0  9990
2 43253  86.3953 276.8100 0002572  97.8915 262.2573 14.34217367434783
IRIDIUM 146             
1 43254U 18030F   26200.75541069  .00000002  00000+0 -64401-5 0  9999
2 43254  86.3953 276.8009 0002273  95.9475 264.1979 14.34217262434808
IRIDIUM 148             
1 43255U 18030G   26200.72369738  .00000120  00000+0  35744-4 0  9995
2 43255  86.3955 276.8577 0002354  93.1179 267.0286 14.34219000434830
IRIDIUM 142             
1 43256U 18030H   26200.76175325  .00000006  00000+0 -50840-5 0  9996
2 43256  86.3951 276.7297 0002311  97.0011 263.1448 14.34217110434800
IRIDIUM 150             
1 43257U 18030J   26200.73003965  .00000045  00000+0  89700-5 0  9993
2 43257  86.3956 276.8607 0002324  96.0736 264.0725 14.34217289434826
IRIDIUM 143             
1 43258U 18030K   26200.71101255  .00000090  00000+0  24919-4 0  9993
2 43258  86.3956 276.9621 0002339  95.9545 264.1917 14.34217689434756
IRIDIUM 161             
1 43478U 18047C   26200.68516177  .00000141  00000+0  36015-4 0  9991
2 43478  86.4457  74.8796 0002175  80.7554 279.3892 14.43276983429829
IRIDIUM 152             
1 43479U 18047D   26200.89303508 -.00000070  00000+0 -31892-4 0  9998
2 43479  86.3929  74.6536 0001976  83.9920 276.1501 14.34217474427171
IRIDIUM 147             
1 43480U 18047E   26200.69007233  .00000069  00000+0  17547-4 0  9991
2 43480  86.3933  74.7446 0002300  87.6755 272.4704 14.34217862427140
IRIDIUM 110             
1 43481U 18047F   26200.69641291  .00000110  00000+0  32177-4 0  9993
2 43481  86.3936  74.8347 0002053  77.7421 282.4005 14.34216857427137
IRIDIUM 162             
1 43482U 18047G   26200.67885850  .00000150  00000+0  38655-4 0  9994
2 43482  86.4455  74.7727 0002187  86.6051 273.5400 14.43279789429812
IRIDIUM 160             
1 43569U 18061A   26200.85155586  .00000097  00000+0  27440-4 0  9992
2 43569  86.3939  43.1333 0002214  86.8312 273.3137 14.34217882418055
IRIDIUM 166             
1 43570U 18061B   26200.52808434  .00000012  00000+0 -27720-5 0  9995
2 43570  86.3937  43.2187 0002284  89.5415 270.6043 14.34217662418034
IRIDIUM 158             
1 43571U 18061C   26200.49637155  .00000024  00000+0  15428-5 0  9996
2 43571  86.3937  43.2419 0002118  88.7187 271.4251 14.34217288417994
IRIDIUM 165             
1 43572U 18061D   26200.80081586  .00000098  00000+0  27815-4 0  9996
2 43572  86.3939  43.1614 0002297  90.0340 270.1119 14.34218176418063
IRIDIUM 155             
1 43573U 18061E   26200.48368579  .00000037  00000+0  62915-5 0  9995
2 43573  86.3936  43.1616 0002144  90.5163 269.6278 14.34217753417981
IRIDIUM 154             
1 43574U 18061F   26200.32512151  .00000018  00000+0 -73931-6 0  9997
2 43574  86.3936  43.3633 0002197  89.2216 270.9232 14.34217320418015
IRIDIUM 163             
1 43575U 18061G   26200.79447338  .00000057  00000+0  13380-4 0  9995
2 43575  86.3935  43.0809 0002122  87.6883 272.4556 14.34217755418059
